H1 CPF 01  gfz 2022 12 10 13  8442 tandemx   
H2 1003001  6202 36605    2022 12 10 12 59 42 2022 12 15 00 00 42   120 1 1  0 0 0
H9
10 0 59926  69102.000000  0    3863556.919  -1954489.414   5347616.578
10 0 59926  69222.000000  0    3110501.725  -1819074.829   5860476.640
10 0 59926  69342.000000  0    2305896.596  -1638262.712   6270267.059
10 0 59926  69462.000000  0    1464580.409  -1414447.795   6569818.716
10 0 59926  69582.000000  0     601970.347  -1151036.548   6753897.629
10 0 59926  69702.000000  0    -266222.895   -852394.656   6819290.665
10 0 59926  69822.000000  0   -1124280.951   -523774.011   6764856.899
10 0 59926  69942.000000  0   -1956760.911   -171220.560   6591545.979
10 0 59926  70062.000000  0   -2748771.932    198536.470   6302382.725
10 0 59926  70182.000000  0   -3486241.583    578211.975   5902418.545
10 0 59926  70302.000000  0   -4156168.526    960106.692   5398649.203
10 0 59926  70422.000000  0   -4746857.036   1336261.164   4799898.487
10 0 59926  70542.000000  0   -5248128.375   1698620.007   4116669.170
10 0 59926  70662.000000  0   -5651504.482   2039202.331   3360962.090
10 0 59926  70782.000000  0   -5950359.470   2350274.844   2546067.160
10 0 59926  70902.000000  0   -6140036.753   2624523.850   1686329.174
10 0 59926  71022.000000  0   -6217928.538   2855222.297    796891.195
10 0 59926  71142.000000  0   -6183513.264   3036386.987   -106579.853
10 0 59926  71262.000000  0   -6038350.799   3162921.814  -1008177.489
10 0 59926  71382.000000  0   -5786035.747   3230743.061  -1892044.653
10 0 59926  71502.000000  0   -5432109.909   3236884.510  -2742661.615
10 0 59926  71622.000000  0   -4983934.911   3179578.482  -3545124.877
10 0 59926  71742.000000  0   -4450530.841   3058311.747  -4285410.950
10 0 59926  71862.000000  0   -3842385.056   2873855.282  -4950619.492
10 0 59926  71982.000000  0   -3171237.158   2628267.548  -5529192.228
10 0 59926  72102.000000  0   -2449846.505   2324872.625  -6011104.033
10 0 59926  72222.000000  0   -1691745.985   1968213.966  -6388027.175
10 0 59926  72342.000000  0    -910986.187   1563983.616  -6653463.049
10 0 59926  72462.000000  0    -121877.917   1118930.271  -6802842.943
10 0 59926  72582.000000  0     661264.556    640747.122  -6833597.602
10 0 59926  72702.000000  0    1424376.466    137941.775  -6745198.404
10 0 59926  72822.000000  0    2153890.499   -380312.137  -6539165.233
10 0 59926  72942.000000  0    2836972.034   -904337.779  -6219042.765
10 0 59926  73062.000000  0    3461742.084  -1424131.014  -5790346.130
10 0 59926  73182.000000  0    4017482.648  -1929546.103  -5260475.624
10 0 59926  73302.000000  0    4494824.122  -2410491.203  -4638600.987
10 0 59926  73422.000000  0    4885908.754  -2857128.749  -3935513.247
10 0 59926  73542.000000  0    5184527.303  -3260076.135  -3163447.396
10 0 59926  73662.000000  0    5386227.125  -3610603.133  -2335876.896
10 0 59926  73782.000000  0    5488387.276  -3900821.394  -1467281.642
10 0 59926  73902.000000  0    5490257.958  -4123861.445   -572894.599
10 0 59926  74022.000000  0    5392963.282  -4274032.623    331569.134
10 0 59926  74142.000000  0    5199466.282  -4346961.773   1230195.546
10 0 59926  74262.000000  0    4914495.214  -4339705.834   2107160.840
10 0 59926  74382.000000  0    4544434.416  -4250834.566   2947019.180
10 0 59926  74502.000000  0    4097182.761  -4080482.299   3734981.920
10 0 59926  74622.000000  0    3581983.500  -3830368.715   4457183.891
10 0 59926  74742.000000  0    3009228.138  -3503786.595   5100931.023
10 0 59926  74862.000000  0    2390241.720  -3105556.976   5654922.906
10 0 59926  74982.000000  0    1737054.205  -2641954.337   6109449.089
10 0 59926  75102.000000  0    1062162.077  -2120603.000   6456553.786
10 0 59926  75222.000000  0     378286.845  -1550348.148   6690168.932
10 0 59926  75342.000000  0    -301865.753   -941103.188   6806214.359
10 0 59926  75462.000000  0    -965841.143   -303675.633   6802664.298
10 0 59926  75582.000000  0   -1601662.901    350424.624   6679580.213
10 0 59926  75702.000000  0   -2198048.029   1009192.667   6439109.823
10 0 59926  75822.000000  0   -2744607.138   1660347.969   6085452.051
10 0 59926  75942.000000  0   -3232026.488   2291562.570   5624788.491
10 0 59926  76062.000000  0   -3652229.845   2890695.253   5065182.138
10 0 59926  76182.000000  0   -3998516.868   3446027.246   4416441.894
10 0 59926  76302.000000  0   -4265675.052   3946494.569   3689955.694
10 0 59926  76422.000000  0   -4450063.184   4381913.087   2898493.758
10 0 59926  76542.000000  0   -4549662.999   4743190.790   2055983.748
10 0 59926  76662.000000  0   -4564097.277   5022521.552   1177262.289
10 0 59926  76782.000000  0   -4494615.349   5213554.610    277808.115
10 0 59926  76902.000000  0   -4344046.312   5311537.170   -626537.628
10 0 59926  77022.000000  0   -4116719.434   5313426.764  -1519860.742
10 0 59926  77142.000000  0   -3818351.970   5217965.210  -2386464.070
10 0 59926  77262.000000  0   -3455911.000   5025718.535  -3211149.703
10 0 59926  77382.000000  0   -3037451.601   4739078.290  -3979490.364
10 0 59926  77502.000000  0   -2571936.541   4362226.094  -4678081.094
10 0 59926  77622.000000  0   -2069042.648   3901064.531  -5294767.834
10 0 59926  77742.000000  0   -1538959.379   3363117.636  -5818851.049
10 0 59926  77862.000000  0    -992182.512   2757400.799  -6241262.775
10 0 59926  77982.000000  0    -439307.313   2094263.340  -6554712.420
10 0 59926  78102.000000  0     109173.715   1385209.196  -6753800.636
10 0 59926  78222.000000  0     643064.894    642698.049  -6835102.933
10 0 59926  78342.000000  0    1152652.638   -120069.855  -6797223.042
10 0 59926  78462.000000  0    1628878.219   -889384.126  -6640813.447
10 0 59926  78582.000000  0    2063494.322  -1651264.244  -6368564.272
10 0 59926  78702.000000  0    2449205.517  -2391706.894  -5985162.381
10 0 59926  78822.000000  0    2779790.105  -3096937.927  -5497220.477
10 0 59926  78942.000000  0    3050202.822  -3753668.359  -4913174.969
10 0 59926  79062.000000  0    3256654.175  -4349346.156  -4243148.964
10 0 59926  79182.000000  0    3396664.751  -4872397.875  -3498787.161
10 0 59926  79302.000000  0    3469096.024  -5312459.666  -2693063.841
10 0 59926  79422.000000  0    3474154.488  -5660591.853  -1840061.834
10 0 59926  79542.000000  0    3413368.414  -5909468.288   -954727.427
10 0 59926  79662.000000  0    3289537.740  -6053538.098    -52605.704
10 0 59926  79782.000000  0    3106656.158  -6089152.729    850438.922
10 0 59926  79902.000000  0    2869809.176  -6014656.531   1738508.878
10 0 59926  80022.000000  0    2585050.003  -5830436.974   2595963.898
10 0 59926  80142.000000  0    2259254.864  -5538931.745   3407704.893
10 0 59926  80262.000000  0    1899963.536  -5144595.405   4159445.271
10 0 59926  80382.000000  0    1515209.019  -4653826.754   4837966.513
10 0 59926  80502.000000  0    1113341.098  -4074857.614   5431351.796
10 0 59926  80622.000000  0     702846.465  -3417606.199   5929195.316
10 0 59926  80742.000000  0     292169.872  -2693497.402   6322779.694
10 0 59926  80862.000000  0    -110458.172  -1915257.845   6605221.502
10 0 59926  80982.000000  0    -497184.368  -1096688.851   6771585.150
10 0 59926  81102.000000  0    -860684.403   -252420.129   6818965.186
10 0 59926  81222.000000  0   -1194300.615    602352.793   6746534.140
10 0 59926  81342.000000  0   -1492163.490   1452141.816   6555555.689
10 0 59926  81462.000000  0   -1749294.773   2281446.014   6249363.895
10 0 59926  81582.000000  0   -1961691.319   3075034.240   5833308.712
10 0 59926  81702.000000  0   -2126387.738   3818226.058   5314667.531
10 0 59926  81822.000000  0   -2241497.409   4497166.672   4702524.957
10 0 59926  81942.000000  0   -2306231.282   5099091.753   4007619.418
10 0 59926  82062.000000  0   -2320893.232   5612575.619   3242158.542
10 0 59926  82182.000000  0   -2286852.140   6027756.654   2419605.221
10 0 59926  82302.000000  0   -2206491.112   6336534.905   1554439.327
10 0 59926  82422.000000  0   -2083134.542   6532737.553    661898.359
10 0 59926  82542.000000  0   -1920954.907   6612247.296   -242297.496
10 0 59926  82662.000000  0   -1724862.008   6573090.686  -1142230.573
10 0 59926  82782.000000  0   -1500376.632   6415483.531  -2022077.354
10 0 59926  82902.000000  0   -1253491.292   6141827.038  -2866396.277
10 0 59926  83022.000000  0    -990524.032   5756661.142  -3660401.792
10 0 59926  83142.000000  0    -717968.650   5266578.858  -4390223.952
10 0 59926  83262.000000  0    -442344.837   4680101.108  -5043148.490
10 0 59926  83382.000000  0    -170051.244   4007517.523  -5607832.315
10 0 59926  83502.000000  0      92775.372   3260696.125  -6074492.862
10 0 59926  83622.000000  0     340391.396   2452865.600  -6435067.011
10 0 59926  83742.000000  0     567564.971   1598377.179  -6683338.179
10 0 59926  83862.000000  0     769681.203    712450.501  -6815033.578
10 0 59926  83982.000000  0     942831.619   -189094.253  -6827889.824
10 0 59926  84102.000000  0    1083886.776  -1090113.675  -6721687.251
10 0 59926  84222.000000  0    1190550.967  -1974422.866  -6498251.490
10 0 59926  84342.000000  0    1261398.952  -2826077.618  -6161425.804
10 0 59926  84462.000000  0    1295894.708  -3629656.698  -5717014.323
10 0 59926  84582.000000  0    1294389.879  -4370540.796  -5172692.053
10 0 59926  84702.000000  0    1258103.895  -5035179.355  -4537882.350
10 0 59926  84822.000000  0    1189085.236  -5611343.394  -3823605.770
10 0 59926  84942.000000  0    1090153.349  -6088359.742  -3042298.016
10 0 59926  85062.000000  0     964823.373  -6457319.621  -2207600.022
10 0 59926  85182.000000  0     817215.038  -6711257.754  -1334123.002
10 0 59926  85302.000000  0     651946.729  -6845296.040   -437191.323
10 0 59926  85422.000000  0     474017.547  -6856746.711    467430.991
10 0 59926  85542.000000  0     288680.538  -6745173.106   1363823.844
99
